[
    {
        "CCSDS_OMM_VERS": "3.0",
        "COMMENT": "GENERATED VIA SPACE-TRACK.ORG API",
        "CREATION_DATE": "2025-02-27T22:36:17",
        "ORIGINATOR": "18 SPCS",
        "OBJECT_NAME": "GALILEO 18 (26E)",
        "OBJECT_ID": "2016-069D",
        "CENTER_NAME": "EARTH",
        "REF_FRAME": "TEME",
        "TIME_SYSTEM": "UTC",
        "MEAN_ELEMENT_THEORY": "SGP4",
        "EPOCH": "2025-02-26T23:31:55.068672",
        "MEAN_MOTION": "1.70474903",
        "ECCENTRICITY": "0.00043990",
        "INCLINATION": "55.2130",
        "RA_OF_ASC_NODE": "114.2462",
        "ARG_OF_PERICENTER": "281.0682",
        "MEAN_ANOMALY": "78.9730",
        "EPHEMERIS_TYPE": "0",
        "CLASSIFICATION_TYPE": "U",
        "NORAD_CAT_ID": "41862",
        "ELEMENT_SET_NO": "999",
        "REV_AT_EPOCH": "5154",
        "BSTAR": "0.00000000000000",
        "MEAN_MOTION_DOT": "0.00000026",
        "MEAN_MOTION_DDOT": "0.0000000000000",
        "SEMIMAJOR_AXIS": "29600.216",
        "PERIOD": "844.699",
        "APOAPSIS": "23235.102",
        "PERIAPSIS": "23209.059",
        "OBJECT_TYPE": "PAYLOAD",
        "RCS_SIZE": "LARGE",
        "COUNTRY_CODE": "ESA",
        "LAUNCH_DATE": "2016-11-17",
        "SITE": "FRGUI",
        "DECAY_DATE": null,
        "FILE": "4654300",
        "GP_ID": "281853718",
        "TLE_LINE0": "0 GALILEO 18 (26E)",
        "TLE_LINE1": "1 41862U 16069D   25057.98049848  .00000026  00000-0  00000+0 0  9999",
        "TLE_LINE2": "2 41862  55.2130 114.2462 0004399 281.0682  78.9730  1.70474903 51545"
    }
]